#cP2025  2 10  0  0  0.00000000     288   u+U IGS20 FIT  GFZ                    
## 2353  86400.00000000   300.00000000 60716 0.0000000000000                    
+   81   E02E03E04E05E06E07E08E09E10E11E12E13E14E15E16E18E19                    
+        E21E23E24E25E26E27E29E30E31E33E34E36G01G02G03G04G05                    
+        G06G07G08G09G10G11G12G13G14G15G16G17G18G19G20G21G22                    
+        G23G24G25G26G27G28G29G30G31G32R01R02R03R04R05R07R08                    
+        R09R11R12R14R15R16R17R18R19R20R21R22R24 00 00 00 00                    
++         5  5  5  5  5  5  5  5  5  0  0  5  6  5  5  5  6                    
++         5  5  5  5  5  5  5  5  5  5  5  5 10  6  5  5  5                    
++         6  6  5  5  5  5  5  5  5  6  5  6  5  6  5  5  5                    
++         6  6  5  5  5  5  5  5  5  5  7  7  5  6  5  6  5                    
++         5  5  7  7  8  7  5  5  7  9  6  5  5  0  0  0  0                    
%c M  cc GPS ccc cccc cccc cccc cccc ccccc ccccc ccccc ccccc                    
%c cc cc ccc ccc cccc cccc cccc cccc ccccc ccccc ccccc ccccc                    
%f  1.2500000  1.025000000  0.00000000000  0.000000000000000                    
%f  0.0000000  0.000000000  0.00000000000  0.000000000000000                    
%i    0    0    0    0      0      0      0      0         0                    
%i    0    0    0    0      0      0      0      0         0                    
/* PCV:IGS20_2335 OL/AL:FES2014b NONE     YN CLK:CoN ORB:CoN                    
/*     GeoForschungsZentrum Potsdam                                             
/*                                                                              
/*                                                                              
*  2025  2 10  6 35  0.00000000                                                 
PE02  27840.586886   4323.279625   9032.760222    196.575351                    
PE03  21786.926717  13381.895446  14922.250681   -172.134969                    
PE04 -15613.782388   6908.330695 -24171.223510   -154.276236                    
PE05  15008.975006  25349.816648  -2894.241404   4826.422334                    
PE06  -8756.363107  16151.313216 -23217.797714    -80.720242                    
PE07    830.015075 -22426.877890  19300.895862   -168.246309                    
PE08  15916.366370  -6126.433183  24194.898180   -414.706769                    
PE09   -783.757928  22349.517294 -19397.233035   -770.755532                    
PE10 -16039.901267  24069.909160   6283.959965   -689.013632                    
PE11 -10228.252825  27441.930140  -4230.643152   -868.296645                    
PE12 -18887.325316  17610.723615  14448.011326   -173.392923                    
PE13  10590.360854 -27402.829047   3698.521488    -30.238016                    
PE14 -16830.374066 -15573.158501   4887.478382    707.056966                    
PE15  18957.811233 -17025.408734 -15065.001673   -156.186373                    
PE16   1886.133736  16740.665864  24330.193989    -20.070510                    
PE18  24227.931824  19358.340751  -9727.925301   1096.016079                    
PE19 -21538.790613 -14975.495875 -13702.483165   1359.224855                    
PE21 -13102.999026 -14520.866769 -22228.074384   -645.460547                    
PE23 -27940.687516  -4018.167371  -8916.174364      6.914657                    
PE24  -9835.372871  16465.136410  22528.095713  -1261.220489                    
PE25  12594.666049  14678.184296  22400.398983     14.130625                    
PE26  -4253.914147 -21336.726179  20085.225879   -129.058349                    
PE27   9795.403545 -16452.834370 -22576.868632   -579.034056                    
PE29 -15155.827058 -25304.572512   2548.407885    -69.410850                    
PE30  26534.158228  -8736.098373  -9784.392008  -1227.845706                    
PE31 -26635.317714   8650.113486   9594.648268    -54.029341                    
PE33 -15874.806928  -3633.026456  24727.007539     16.402302                    
PE34  16048.644491   3178.261951 -24664.456371   -162.770253                    
PE36   3763.104864  21581.065921 -19889.411601   -351.210410                    
PG01 -15577.892413  19838.890904   8306.099380    111.299881                    
PG02 -14161.204001  18623.501453  12618.920632   -246.594302                    
PG03 -19546.322736  12117.263543 -13346.626438    661.142257                    
PG04  -8327.511041  13324.221214 -21370.382551    525.031014                    
PG05  26029.862897  -5464.356774   -395.307627   -201.530360                    
PG06   9167.593852  13817.937326 -20645.537770   -177.771327                    
PG07  -5109.346813  25323.554286   5580.560895    -13.701131                    
PG08 -16620.361210   3367.306375  20406.132453    477.533817                    
PG09   1099.110869  19924.125865 -17587.378405    561.658915                    
PG10 -13645.460162 -11225.481810  20172.665223   -312.497834                    
PG11  15260.592959   2205.057449 -21579.287298   -748.021138                    
PG12  21599.716065 -10391.935955 -11689.909691   -569.375922                    
PG13  18414.834328   7096.881086  17658.975478    696.040600                    
PG14   9816.551884  13662.168225  20651.236480    595.912597                    
PG15  15594.782052  -5995.176432  20155.552987    261.767837                    
PG16 -26247.214364  -1695.594368  -5506.905941    -56.597232                    
PG17  11865.183904  23000.545897   5841.791912    432.839228                    
PG18   4461.853829 -25025.920139   7312.219031   -653.843096                    
PG19  17346.160112  19869.332889  -4879.572291    596.332775                    
PG20  23338.372007    810.688853 -12449.962295    366.415385                    
PG21 -15778.567697  12118.388905  17362.453073    101.790679                    
PG22  16683.524527  11097.837444  17655.981221    -96.347159                    
PG23   2355.755591 -15197.184621  21669.380094    420.758204                    
PG24  14327.160558 -17768.630603  12772.249931   -453.790993                    
PG25   9726.266880 -15891.456581 -19194.901990    495.253658                    
PG26 -21560.387849  -5806.589475 -14858.202705    -84.834646                    
PG27 -20581.549655  -8608.468051  14422.672072    -31.728187                    
PG28  -8938.750768 -15829.688328 -19369.981100   -556.193838                    
PG29    755.046382 -19868.152197 -17597.870311   -539.082821                    
PG30   3909.077696  21530.686170  15022.660265   -219.524973                    
PG31 -13796.605417  -7087.678649 -21793.328912   -215.849264                    
PG32 -16712.754943 -20774.093273    969.898136   -524.660871                    
PR01  22517.051771   7004.061402   9749.461358    114.236857                    
PR02  13004.745995  -3891.223024  21631.108971    -37.535355                    
PR03  -4054.295685 -13781.658090  21146.487972    116.567005                    
PR04 -17926.305754 -15673.306533   9202.980787    276.577538                    
PR05 -22439.540975  -9411.922401  -7675.988393    145.117590                    
PR07   4257.635405  13811.195657 -20958.328940    100.525014                    
PR08  18263.153268  15430.538283  -8772.435738     -6.165598                    
PR09 -20827.799212  14429.575031   2540.715917    237.134709                    
PR11   5604.834243   9411.117307  23041.563952     -7.978812                    
PR12  20554.774039  -3784.304891  14631.267649     50.626578                    
PR14   9704.400957 -15703.035574 -17608.771244     27.740217                    
PR15  -7372.365091  -8476.891427 -22888.381564     71.345493                    
PR16 -20425.937196   3826.678400 -14764.497082     33.200596                    
PR17   1452.026253 -25312.327742  -2618.803190    164.839949                    
PR18  -5543.049139 -21098.572769  13284.493471    186.300942                    
PR19  -9458.202369  -8505.738208  22112.671630    -40.126747                    
PR20  -9261.435408  14551.754604  18783.632250   -125.684840                    
PR21  -2328.453184  25089.623566   4043.524439   -175.534540                    
PR22   5866.377736  20339.953976 -14192.483813    -59.929759                    
PR24   8755.849943 -15472.479460 -18268.782714    -91.867056                    
EOF                                     
